NORAD_CAT_ID,OBJECT_NAME,OBJECT_TYPE,EPOCH,MEAN_MOTION,ECCENTRICITY,INCLINATION,RA_OF_ASC_NODE,ARG_OF_PERICENTER,MEAN_ANOMALY,BSTAR,MEAN_MOTION_DOT,MEAN_MOTION_DDOT,TLE_LINE0,TLE_LINE1,TLE_LINE2,SEMIMAJOR_AXIS,PERIOD,APOGEE,PERIGEE,DECAYED
55747.0,STARLINK-5539,PAYLOAD,2024-01-04 11:29:49,14.98331465,0.0002912,69.9998,89.5324,272.2955,87.787,1.767e-05,1.18e-06,0.0,0 STARLINK-5539,1 55747U 23028G   24004.47904982  .00000118  00000-0  17670-4 0  9991,2 55747  69.9998  89.5324 0002912 272.2955  87.7870 14.98331465 46929,6950.188,96.107,574.077,570.029,0.0
55747.0,STARLINK-5539,PAYLOAD,2024-01-04 13:05:57,14.98332671,0.0002607,70.0006,89.3649,264.931,95.1552,2.9726e-05,2.62e-06,0.0,0 STARLINK-5539,1 55747U 23028G   24004.54580820  .00000262  00000-0  29726-4 0  9995,2 55747  70.0006  89.3649 0002607 264.9310  95.1552 14.98332671 46935,6950.185,96.107,573.862,570.238,0.0
55747.0,STARLINK-5539,PAYLOAD,2024-01-04 16:18:13,14.98333308,0.0002701,70.0004,89.0281,266.351,93.734,4.8997e-05,4.92e-06,0.0,0 STARLINK-5539,1 55747U 23028G   24004.67932710  .00000492  00000-0  48997-4 0  9994,2 55747  70.0004  89.0281 0002701 266.3510  93.7340 14.98333308 46954,6950.183,96.107,573.925,570.17,0.0
55747.0,STARLINK-5539,PAYLOAD,2024-01-05 11:31:51,14.98324725,0.0002678,70.0001,87.008,264.0344,96.051,3.9087e-05,3.73e-06,0.0,0 STARLINK-5539,1 55747U 23028G   24005.48045281  .00000373  00000-0  39087-4 0  9990,2 55747  70.0001  87.0080 0002678 264.0344  96.0510 14.98324725 47071,6950.209,96.107,573.935,570.213,0.0
55747.0,STARLINK-5539,PAYLOAD,2024-01-05 14:44:07,14.98325802,0.0002554,70.0,86.6706,263.2672,96.8197,6.1622e-05,6.42e-06,0.0,0 STARLINK-5539,1 55747U 23028G   24005.61397227  .00000642  00000-0  61622-4 0  9994,2 55747  70.0000  86.6706 0002554 263.2672  96.8197 14.98325802 47096,6950.206,96.107,573.846,570.296,0.0
55747.0,STARLINK-5539,PAYLOAD,2024-01-06 11:33:52,14.98327641,0.000286,69.9997,84.4829,267.6805,92.4026,-3.7953e-05,-5.46e-06,0.0,0 STARLINK-5539,1 55747U 23028G   24006.48185393 -.00000546  00000-0 -37953-4 0  9994,2 55747  69.9997  84.4829 0002860 267.6805  92.4026 14.98327641 47227,6950.2,96.107,574.053,570.077,0.0
55747.0,STARLINK-5539,PAYLOAD,2024-01-06 14:46:08,14.98329959,0.0002932,69.9998,84.1464,268.6214,91.4609,-1.3033e-05,-2.48e-06,0.0,0 STARLINK-5539,1 55747U 23028G   24006.61537197 -.00000248  00000-0 -13033-4 0  9994,2 55747  69.9998  84.1464 0002932 268.6214  91.4609 14.98329959 47247,6950.193,96.107,574.096,570.02,0.0
55747.0,STARLINK-5539,PAYLOAD,2024-01-07 11:35:52,14.98329941,0.0002801,70.0,81.9589,264.1937,95.8903,7.2192e-05,7.68e-06,0.0,0 STARLINK-5539,1 55747U 23028G   24007.48324888  .00000768  00000-0  72192-4 0  9997,2 55747  70.0000  81.9589 0002801 264.1937  95.8903 14.98329941 47375,6950.193,96.107,574.005,570.111,0.0
55747.0,STARLINK-5539,PAYLOAD,2024-01-07 14:48:08,14.98317829,0.0002721,69.9999,81.6219,265.4159,94.6689,0.00034725,4.051e-05,0.0,0 STARLINK-5539,1 55747U 23028G   24007.61676996  .00004051  00000-0  34725-3 0  9990,2 55747  69.9999  81.6219 0002721 265.4159  94.6689 14.98317829 47399,6950.231,96.108,573.987,570.204,0.0
55747.0,STARLINK-5539,PAYLOAD,2024-01-08 11:37:53,14.98330579,0.0002817,70.0001,79.4346,261.0889,98.9951,4.3864e-05,4.3e-06,0.0,0 STARLINK-5539,1 55747U 23028G   24008.48464757  .00000430  00000-0  43864-4 0  9998,2 55747  70.0001  79.4346 0002817 261.0889  98.9951 14.98330579 47521,6950.191,96.107,574.014,570.098,0.0
55747.0,STARLINK-5539,PAYLOAD,2024-01-08 13:14:01,14.98330911,0.0002812,70.0001,79.2663,261.0289,99.0552,4.6724e-05,4.65e-06,0.0,0 STARLINK-5539,1 55747U 23028G   24008.55140726  .00000465  00000-0  46724-4 0  9999,2 55747  70.0001  79.2663 0002812 261.0289  99.0552 14.98330911 47530,6950.19,96.107,574.009,570.101,0.0
55747.0,STARLINK-5539,PAYLOAD,2024-01-08 14:50:09,14.98331488,0.0002819,70.0001,79.098,261.5792,98.5047,5.0858e-05,5.14e-06,0.0,0 STARLINK-5539,1 55747U 23028G   24008.61816673  .00000514  00000-0  50858-4 0  9995,2 55747  70.0001  79.0980 0002819 261.5792  98.5047 14.98331488 47545,6950.188,96.107,574.013,570.094,0.0
55747.0,STARLINK-5539,PAYLOAD,2024-01-09 11:39:54,14.98332728,0.000273,70.0003,76.9099,260.3117,99.7734,2.2045e-06,-6.7e-07,0.0,0 STARLINK-5539,1 55747U 23028G   24009.48604611 -.00000067  00000-0  22045-5 0  9990,2 55747  70.0003  76.9099 0002730 260.3117  99.7734 14.98332728 47672,6950.184,96.107,573.947,570.152,0.0
55747.0,STARLINK-5539,PAYLOAD,2024-01-09 13:16:02,14.98333051,0.0002726,70.0003,76.7416,260.2811,99.804,6.0971e-06,-2e-07,0.0,0 STARLINK-5539,1 55747U 23028G   24009.55280574 -.00000020  00000-0  60971-5 0  9995,2 55747  70.0003  76.7416 0002726 260.2811  99.8040 14.98333051 47680,6950.183,96.107,573.943,570.154,0.0
55747.0,STARLINK-5539,PAYLOAD,2024-01-09 14:52:10,14.98332692,0.000274,70.0002,76.573,262.4475,97.6373,3.2147e-06,-5.5e-07,0.0,0 STARLINK-5539,1 55747U 23028G   24009.61956600 -.00000055  00000-0  32147-5 0  9994,2 55747  70.0002  76.5730 0002740 262.4475  97.6373 14.98332692 47698,6950.185,96.107,573.954,570.145,0.0
55747.0,STARLINK-5539,PAYLOAD,2024-01-10 10:05:47,14.98330339,0.0002713,70.0002,74.5528,261.5374,98.5478,2.6011e-06,-6.2e-07,0.0,0 STARLINK-5539,1 55747U 23028G   24010.42068609 -.00000062  00000-0  26011-5 0  9999,2 55747  70.0002  74.5528 0002713 261.5374  98.5478 14.98330339 47815,6950.192,96.107,573.942,570.171,0.0
55747.0,STARLINK-5539,PAYLOAD,2024-01-10 13:18:03,14.98331161,0.0002698,70.0002,74.2162,260.8107,99.2747,1.2777e-05,6e-07,0.0,0 STARLINK-5539,1 55747U 23028G   24010.55420524  .00000060  00000-0  12777-4 0  9991,2 55747  70.0002  74.2162 0002698 260.8107  99.2747 14.98331161 47837,6950.189,96.107,573.929,570.179,0.0
55747.0,STARLINK-5539,PAYLOAD,2024-01-11 13:20:04,14.98330575,0.0002713,70.0,71.6908,258.7091,101.3763,1.1474e-05,4.4e-07,0.0,0 STARLINK-5539,1 55747U 23028G   24011.55560516  .00000044  00000-0  11474-4 0  9993,2 55747  70.0000  71.6908 0002713 258.7091 101.3763 14.98330575 47987,6950.191,96.107,573.942,570.171,0.0
55747.0,STARLINK-5539,PAYLOAD,2024-01-12 13:22:05,14.98328607,0.0002684,70.0002,69.1659,254.4979,105.5883,6.9554e-06,-1e-07,0.0,0 STARLINK-5539,1 55747U 23028G   24012.55700669 -.00000010  00000-0  69554-5 0  9996,2 55747  70.0002  69.1659 0002684 254.4979 105.5883 14.98328607 48139,6950.197,96.107,573.928,570.197,0.0
55747.0,STARLINK-5539,PAYLOAD,2024-01-13 13:24:06,14.98329475,0.0002657,70.0003,66.6408,256.336,103.7503,3.2904e-05,3e-06,0.0,0 STARLINK-5539,1 55747U 23028G   24013.55840639  .00000300  00000-0  32904-4 0  9998,2 55747  70.0003  66.6408 0002657 256.3360 103.7503 14.98329475 48288,6950.195,96.107,573.906,570.213,0.0
55747.0,STARLINK-5539,PAYLOAD,2024-01-14 13:26:07,14.98331041,0.0002699,70.0001,64.1159,259.1608,100.9247,4.8844e-05,4.9e-06,0.0,0 STARLINK-5539,1 55747U 23028G   24014.55980468  .00000490  00000-0  48844-4 0  9994,2 55747  70.0001  64.1159 0002699 259.1608 100.9247 14.98331041 48437,6950.19,96.107,573.931,570.179,0.0
55747.0,STARLINK-5539,PAYLOAD,2024-01-15 13:28:07,14.98335497,0.0002675,70.0002,61.5912,260.7958,99.2898,7.4285e-05,7.94e-06,0.0,0 STARLINK-5539,1 55747U 23028G   24015.56119969  .00000794  00000-0  74285-4 0  9991,2 55747  70.0002  61.5912 0002675 260.7958  99.2898 14.98335497 48583,6950.176,96.107,573.9,570.182,0.0
55747.0,STARLINK-5539,PAYLOAD,2024-01-16 02:17:12,14.98327346,0.0002479,70.0008,60.2454,255.442,104.6464,-7.9544e-06,-1.88e-06,0.0,0 STARLINK-5539,1 55747U 23028G   24016.09528637 -.00000188  00000-0 -79544-5 0  9999,2 55747  70.0008  60.2454 0002479 255.4420 104.6464 14.98327346 48666,6950.201,96.107,573.789,570.343,0.0
55747.0,STARLINK-5539,PAYLOAD,2024-01-16 11:54:01,14.98323043,0.0002518,70.0005,59.2347,261.9057,98.1817,-5.8715e-05,-7.93e-06,0.0,0 STARLINK-5539,1 55747U 23028G   24016.49585180 -.00000793  00000-0 -58715-4 0  9997,2 55747  70.0005  59.2347 0002518 261.9057  98.1817 14.98323043 48720,6950.214,96.107,573.829,570.329,0.0
55747.0,STARLINK-5539,PAYLOAD,2024-01-17 03:55:21,14.98330694,0.0002877,69.9995,57.5494,266.4452,93.6378,-2.138e-05,-3.48e-06,0.0,0 STARLINK-5539,1 55747U 23028G   24017.16344611 -.00000348  00000-0 -21380-4 0  9998,2 55747  69.9995  57.5494 0002877 266.4452  93.6378 14.98330694 48829,6950.191,96.107,574.055,570.056,0.0
55747.0,STARLINK-5539,PAYLOAD,2024-01-17 11:56:01,14.98332596,0.0002579,70.0003,56.7095,261.5275,98.5592,-6.8977e-07,-1.01e-06,0.0,0 STARLINK-5539,1 55747U 23028G   24017.49724425 -.00000101  00000-0 -68977-6 0  9991,2 55747  70.0003  56.7095 0002579 261.5275  98.5592 14.98332596 48878,6950.185,96.107,573.842,570.257,0.0
55747.0,STARLINK-5539,PAYLOAD,2024-01-18 03:57:22,14.98324892,0.0002708,69.9998,55.0252,263.2555,96.8296,6.5483e-05,6.88e-06,0.0,0 STARLINK-5539,1 55747U 23028G   24018.16484752  .00000688  00000-0  65483-4 0  9997,2 55747  69.9998  55.0252 0002708 263.2555  96.8296 14.98324892 48972,6950.209,96.107,573.956,570.192,0.0
55747.0,STARLINK-5539,PAYLOAD,2024-01-18 11:58:03,14.98325562,0.0002693,70.0001,54.1837,262.879,97.2063,6.6977e-05,7.06e-06,0.0,0 STARLINK-5539,1 55747U 23028G   24018.49864814  .00000706  00000-0  66977-4 0  9994,2 55747  70.0001  54.1837 0002693 262.8790  97.2063 14.98325562 49027,6950.207,96.107,573.943,570.2,0.0
55747.0,STARLINK-5539,PAYLOAD,2024-01-19 03:59:23,14.98334316,0.000282,69.9998,52.5007,266.1634,93.9203,3.2057e-05,2.9e-06,0.0,0 STARLINK-5539,1 55747U 23028G   24019.16624345  .00000290  00000-0  32057-4 0  9992,2 55747  69.9998  52.5007 0002820 266.1634  93.9203 14.98334316 49123,6950.18,96.107,574.004,570.085,0.0
55747.0,STARLINK-5539,PAYLOAD,2024-01-19 12:00:03,14.98335657,0.000281,69.9999,51.659,266.2911,93.7926,4.6768e-05,4.65e-06,0.0,0 STARLINK-5539,1 55747U 23028G   24019.50004138  .00000465  00000-0  46768-4 0  9990,2 55747  69.9999  51.6590 0002810 266.2911  93.7926 14.98335657 49173,6950.175,96.107,573.993,570.087,0.0
